{
    "CCSDS_OMM_VERS": "3.0",
    "COMMENT": "GENERATED VIA SPACE-TRACK.ORG API",
    "CREATION_DATE": "2025-05-23T14:56:28",
    "ORIGINATOR": "18 SPCS",
    "OBJECT_NAME": "COSMOS 2501 (GLONASS)",
    "OBJECT_ID": "2014-075A",
    "CENTER_NAME": "EARTH",
    "REF_FRAME": "TEME",
    "TIME_SYSTEM": "UTC",
    "MEAN_ELEMENT_THEORY": "SGP4",
    "EPOCH": "2025-05-23T08:18:34.085376",
    "MEAN_MOTION": "2.13101354",
    "ECCENTRICITY": "0.00214140",
    "INCLINATION": "63.6142",
    "RA_OF_ASC_NODE": "203.8705",
    "ARG_OF_PERICENTER": "210.5167",
    "MEAN_ANOMALY": "149.4362",
    "EPHEMERIS_TYPE": "0",
    "CLASSIFICATION_TYPE": "U",
    "NORAD_CAT_ID": "40315",
    "ELEMENT_SET_NO": "999",
    "REV_AT_EPOCH": "8154",
    "BSTAR": "0.00000000000000",
    "MEAN_MOTION_DOT": "0.00000067",
    "MEAN_MOTION_DDOT": "0.0000000000000",
    "SEMIMAJOR_AXIS": "25508.076",
    "PERIOD": "675.735",
    "APOAPSIS": "19184.564",
    "PERIAPSIS": "19075.318",
    "OBJECT_TYPE": "PAYLOAD",
    "RCS_SIZE": "LARGE",
    "COUNTRY_CODE": "CIS",
    "LAUNCH_DATE": "2014-11-30",
    "SITE": "PKMTR",
    "DECAY_DATE": null,
    "FILE": "4737062",
    "GP_ID": "288177595",
    "TLE_LINE0": "0 COSMOS 2501 (GLONASS)",
    "TLE_LINE1": "1 40315U 14075A   25143.34622784  .00000067  00000-0  00000+0 0  9993",
    "TLE_LINE2": "2 40315  63.6142 203.8705 0021414 210.5167 149.4362  2.13101354 81543"
}